{"type": "FeatureCollection", "features": [ {"type": "Feature", "properties": {"norad_id": 31633, "name": "FENGYUN 1C DEB", "group": "fengyun-1c-debris", "lat": -4.768469792469018, "lon": -7.127704744850505, "alt_km": 918.7730494126317, "timestamp": "2025-12-03T13:52:09.845294+00:00", "meta": {"OBJECT_NAME": "FENGYUN 1C DEB", "OBJECT_ID": "1999-025CAP", "EPOCH": "2025-11-15T20:43:47.485920", "MEAN_MOTION": 14.06334417, "ECCENTRICITY": 0.00656916, "INCLINATION": 98.7152, "RA_OF_ASC_NODE": 335.0833, "ARG_OF_PERICENTER": 248.7649, "MEAN_ANOMALY": 110.6494, "EPHEMERIS_TYPE": 0, "CLASSIFICATION_TYPE": "U", "NORAD_CAT_ID": 31633, "ELEMENT_SET_NO": 999, "REV_AT_EPOCH": 56706, "BSTAR": 0.0011592605, "MEAN_MOTION_DOT": 1.907e-05, "MEAN_MOTION_DDOT": 0}, "tle": {"line1": "1 31633U 99025CAP 25319.86374405  .00001907  00000+0  11593-2 0  9995", "line2": "2 31633  98.7152 335.0833 0065691 248.7649 110.6494 14.06334417567064"}}, "geometry": {"type": "Point", "coordinates": [-7.127704744850505, -4.768469792469018]}}, {"type": "Feature", "properties": {"norad_id": 31634, "name": "FENGYUN 1C DEB", "group": "fengyun-1c-debris", "lat": -79.06074606707416, "lon": 82.60029139014685, "alt_km": 922.8161120636787, "timestamp": "2025-12-03T13:52:09.845307+00:00", "meta": {"OBJECT_NAME": "FENGYUN 1C DEB", "OBJECT_ID": "1999-025CAQ", "EPOCH": "2025-12-02T09:00:27.072576", "MEAN_MOTION": 13.94657889, "ECCENTRICITY": 0.00916924, "INCLINATION": 99.3683, "RA_OF_ASC_NODE": 22.7184, "ARG_OF_PERICENTER": 185.6903, "MEAN_ANOMALY": 174.3223, "EPHEMERIS_TYPE": 0, "CLASSIFICATION_TYPE": "U", "NORAD_CAT_ID": 31634, "ELEMENT_SET_NO": 999, "REV_AT_EPOCH": 56379, "BSTAR": 0.00031553586, "MEAN_MOTION_DOT": 3.91e-06, "MEAN_MOTION_DDOT": 0}, "tle": {"line1": "1 31634U 99025CAQ 25336.37531334  .00000391  00000+0  31554-3 0  9993", "line2": "2 31634  99.3683  22.7184 0091692 185.6903 174.3223 13.94657889563792"}}, "geometry": {"type": "Point", "coordinates": [82.60029139014685, -79.06074606707416]}}, {"type": "Feature", "properties": {"norad_id": 31639, "name": "FENGYUN 1C DEB", "group": "fengyun-1c-debris", "lat": 76.79042507034174, "lon": 145.08647682610422, "alt_km": 896.5864978979907, "timestamp": "2025-12-03T13:52:09.845317+00:00", "meta": {"OBJECT_NAME": "FENGYUN 1C DEB", "OBJECT_ID": "1999-025CAV", "EPOCH": "2025-11-30T08:06:41.226624", "MEAN_MOTION": 13.85157464, "ECCENTRICITY": 0.01610819, "INCLINATION": 98.7412, "RA_OF_ASC_NODE": 281.1108, "ARG_OF_PERICENTER": 178.8374, "MEAN_ANOMALY": 335.5568, "EPHEMERIS_TYPE": 0, "CLASSIFICATION_TYPE": "U", "NORAD_CAT_ID": 31639, "ELEMENT_SET_NO": 999, "REV_AT_EPOCH": 93516, "BSTAR": 0.00014166692, "MEAN_MOTION_DOT": 1.38e-06, "MEAN_MOTION_DDOT": 0}, "tle": {"line1": "1 31639U 99025CAV 25334.33797716  .00000138  00000+0  14167-3 0  9990", "line2": "2 31639  98.7412 281.1108 0161081 178.8374 335.5568 13.85157464935164"}}, "geometry": {"type": "Point", "coordinates": [145.08647682610422, 76.79042507034174]}}, {"type": "Feature", "properties": {"norad_id": 31642, "name": "FENGYUN 1C DEB", "group": "fengyun-1c-debris", "lat": 45.03770454979459, "lon": -111.44861455890575, "alt_km": 849.8145890057604, "timestamp": "2025-12-03T13:52:09.845328+00:00", "meta": {"OBJECT_NAME": "FENGYUN 1C DEB", "OBJECT_ID": "1999-025CAY", "EPOCH": "2025-12-03T04:51:32.967360", "MEAN_MOTION": 14.3336659, "ECCENTRICITY": 0.01189958, "INCLINATION": 98.5051, "RA_OF_ASC_NODE": 59.5651, "ARG_OF_PERICENTER": 284.9372, "MEAN_ANOMALY": 73.8663, "EPHEMERIS_TYPE": 0, "CLASSIFICATION_TYPE": "U", "NORAD_CAT_ID": 31642, "ELEMENT_SET_NO": 999, "REV_AT_EPOCH": 96882, "BSTAR": 0.00045606698, "MEAN_MOTION_DOT": 1.314e-05, "MEAN_MOTION_DDOT": 0}, "tle": {"line1": "1 31642U 99025CAY 25337.20246490  .00001314  00000+0  45607-3 0  9991", "line2": "2 31642  98.5051  59.5651 0118995 284.9372  73.8663 14.33366590968821"}}, "geometry": {"type": "Point", "coordinates": [-111.44861455890575, 45.03770454979459]}}, {"type": "Feature", "properties": {"norad_id": 31644, "name": "FENGYUN 1C DEB", "group": "fengyun-1c-debris", "lat": 21.11155899757903, "lon": -136.50214317374025, "alt_km": 774.7572424449991, "timestamp": "2025-12-03T13:52:09.845338+00:00", "meta": {"OBJECT_NAME": "FENGYUN 1C DEB", "OBJECT_ID": "1999-025CBA", "EPOCH": "2025-11-21T12:42:57.254976", "MEAN_MOTION": 14.67516409, "ECCENTRICITY": 0.01542321, "INCLINATION": 98.6708, "RA_OF_ASC_NODE": 214.1231, "ARG_OF_PERICENTER": 249.7824, "MEAN_ANOMALY": 233.9489, "EPHEMERIS_TYPE": 0, "CLASSIFICATION_TYPE": "U", "NORAD_CAT_ID": 31644, "ELEMENT_SET_NO": 999, "REV_AT_EPOCH": 70733, "BSTAR": 0.0012165012, "MEAN_MOTION_DOT": 8.195e-05, "MEAN_MOTION_DDOT": 0}, "tle": {"line1": "1 31644U 99025CBA 25325.52982934  .00008195  00000+0  12165-2 0  9991", "line2": "2 31644  98.6708 214.1231 0154232 249.7824 233.9489 14.67516409707336"}}, "geometry": {"type": "Point", "coordinates": [-136.50214317374025, 21.11155899757903]}}, {"type": "Feature", "properties": {"norad_id": 31646, "name": "FENGYUN 1C DEB", "group": "fengyun-1c-debris", "lat": 15.746707086272698, "lon": -176.68867344619414, "alt_km": 840.6299318942129, "timestamp": "2025-12-03T13:52:09.845348+00:00", "meta": {"OBJECT_NAME": "FENGYUN 1C DEB", "OBJECT_ID": "1999-025CBC", "EPOCH": "2025-11-26T07:52:55.511328", "MEAN_MOTION": 14.14089846, "ECCENTRICITY": 0.00324277, "INCLINATION": 98.6918, "RA_OF_ASC_NODE": 353.7887, "ARG_OF_PERICENTER": 261.5394, "MEAN_ANOMALY": 98.2104, "EPHEMERIS_TYPE": 0, "CLASSIFICATION_TYPE": "U", "NORAD_CAT_ID": 31646, "ELEMENT_SET_NO": 999, "REV_AT_EPOCH": 62959, "BSTAR": 0.00056384742, "MEAN_MOTION_DOT": 1.035e-05, "MEAN_MOTION_DDOT": 0}, "tle": {"line1": "1 31646U 99025CBC 25330.32842027  .00001035  00000+0  56385-3 0  9994", "line2": "2 31646  98.6918 353.7887 0032427 261.5394  98.2104 14.14089846629592"}}, "geometry": {"type": "Point", "coordinates": [-176.68867344619414, 15.746707086272698]}}, {"type": "Feature", "properties": {"norad_id": 31655, "name": "FENGYUN 1C DEB", "group": "fengyun-1c-debris", "lat": -15.470206583086998, "lon": 101.27596509899853, "alt_km": 847.011156990623, "timestamp": "2025-12-03T13:52:09.845359+00:00", "meta": {"OBJECT_NAME": "FENGYUN 1C DEB", "OBJECT_ID": "1999-025CBM", "EPOCH": "2025-12-02T03:33:47.704320", "MEAN_MOTION": 13.63773307, "ECCENTRICITY": 0.02884116, "INCLINATION": 99.2856, "RA_OF_ASC_NODE": 282.5047, "ARG_OF_PERICENTER": 165.6221, "MEAN_ANOMALY": 213.94, "EPHEMERIS_TYPE": 0, "CLASSIFICATION_TYPE": "U", "NORAD_CAT_ID": 31655, "ELEMENT_SET_NO": 999, "REV_AT_EPOCH": 59575, "BSTAR": 0.002889873, "MEAN_MOTION_DOT": 2.997e-05, "MEAN_MOTION_DDOT": 0}, "tle": {"line1": "1 31655U 99025CBM 25336.14846880  .00002997  00000+0  28899-2 0  9997", "line2": "2 31655  99.2856 282.5047 0288411 165.6221 213.9400 13.63773307595756"}}, "geometry": {"type": "Point", "coordinates": [101.27596509899853, -15.470206583086998]}}, {"type": "Feature", "properties": {"norad_id": 31656, "name": "FENGYUN 1C DEB", "group": "fengyun-1c-debris", "lat": 74.07477076489873, "lon": -179.82921533929724, "alt_km": 714.4919365759706, "timestamp": "2025-12-03T13:52:09.845369+00:00", "meta": {"OBJECT_NAME": "FENGYUN 1C DEB", "OBJECT_ID": "1999-025CBN", "EPOCH": "2025-12-03T05:09:50.756256", "MEAN_MOTION": 14.46757305, "ECCENTRICITY": 0.00227174, "INCLINATION": 99.1936, "RA_OF_ASC_NODE": 325.1943, "ARG_OF_PERICENTER": 78.8473, "MEAN_ANOMALY": 295.9747, "EPHEMERIS_TYPE": 0, "CLASSIFICATION_TYPE": "U", "NORAD_CAT_ID": 31656, "ELEMENT_SET_NO": 999, "REV_AT_EPOCH": 96318, "BSTAR": 0.0029586826, "MEAN_MOTION_DOT": 0.00010706, "MEAN_MOTION_DDOT": 0}, "tle": {"line1": "1 31656U 99025CBN 25337.21517079  .00010706  00000+0  29587-2 0  9994", "line2": "2 31656  99.1936 325.1943 0022717  78.8473 295.9747 14.46757305963185"}}, "geometry": {"type": "Point", "coordinates": [-179.82921533929724, 74.07477076489873]}}, {"type": "Feature", "properties": {"norad_id": 31657, "name": "FENGYUN 1C DEB", "group": "fengyun-1c-debris", "lat": 22.10124514027596, "lon": 64.04480495151091, "alt_km": 886.3678633607369, "timestamp": "2025-12-03T13:52:09.845380+00:00", "meta": {"OBJECT_NAME": "FENGYUN 1C DEB", "OBJECT_ID": "1999-025CBP", "EPOCH": "2025-12-01T23:19:04.849824", "MEAN_MOTION": 13.96877363, "ECCENTRICITY": 0.0144659, "INCLINATION": 102.2169, "RA_OF_ASC_NODE": 236.8704, "ARG_OF_PERICENTER": 80.0199, "MEAN_ANOMALY": 281.7242, "EPHEMERIS_TYPE": 0, "CLASSIFICATION_TYPE": "U", "NORAD_CAT_ID": 31657, "ELEMENT_SET_NO": 999, "REV_AT_EPOCH": 62714, "BSTAR": 0.0034958058, "MEAN_MOTION_DOT": 5.25e-05, "MEAN_MOTION_DDOT": 0}, "tle": {"line1": "1 31657U 99025CBP 25335.97158391  .00005250  00000+0  34958-2 0  9990", "line2": "2 31657 102.2169 236.8704 0144659  80.0199 281.7242 13.96877363627140"}}, "geometry": {"type": "Point", "coordinates": [64.04480495151091, 22.10124514027596]}}, {"type": "Feature", "properties": {"norad_id": 31658, "name": "FENGYUN 1C DEB", "group": "fengyun-1c-debris", "lat": 38.12500247434254, "lon": -178.78273224426283, "alt_km": 793.7002634945275, "timestamp": "2025-12-03T13:52:09.845390+00:00", "meta": {"OBJECT_NAME": "FENGYUN 1C DEB", "OBJECT_ID": "1999-025CBQ", "EPOCH": "2025-11-30T13:35:01.131648", "MEAN_MOTION": 13.98632883, "ECCENTRICITY": 0.0215722, "INCLINATION": 98.1534, "RA_OF_ASC_NODE": 184.9954, "ARG_OF_PERICENTER": 356.7033, "MEAN_ANOMALY": 3.2699, "EPHEMERIS_TYPE": 0, "CLASSIFICATION_TYPE": "U", "NORAD_CAT_ID": 31658, "ELEMENT_SET_NO": 999, "REV_AT_EPOCH": 69646, "BSTAR": 0.0024889, "MEAN_MOTION_DOT": 4.324e-05, "MEAN_MOTION_DDOT": 0}, "tle": {"line1": "1 31658U 99025CBQ 25334.56598532  .00004324  00000+0  24889-2 0  9993", "line2": "2 31658  98.1534 184.9954 0215722 356.7033   3.2699 13.98632883696462"}}, "geometry": {"type": "Point", "coordinates": [-178.78273224426283, 38.12500247434254]}}]}